MATS
1 19822U 89016A   17235.42606818  .00024124 -11180-6  48636-3 0  9990
2 19822  75.0347 213.5985 1899143  84.1524 297.1598 11.70668967917113